[
  {
    "name": "NOAA 1",
    "line1": "1 04793U 70106A   25113.10474544 -.00000034  00000+0  55878-4 0  9992",
    "line2": "2 04793 101.3946 160.0249 0032082  90.8042 325.3540 12.54042282488517"
  },
  {
    "name": "NOAA 2 (ITOS-D)",
    "line1": "1 06235U 72082A   25112.98190953 -.00000005  00000+0  26169-3 0  9992",
    "line2": "2 06235 102.0235 121.6334 0003666 248.8437 167.0435 12.53199163402314"
  },
  {
    "name": "NOAA 3",
    "line1": "1 06920U 73086A   25112.83126375 -.00000014  00000+0  24385-3 0  9997",
    "line2": "2 06920 102.2907 117.6810 0006551 173.8876 239.1937 12.40381401329788"
  },
  {
    "name": "NOAA 4",
    "line1": "1 07529U 74089A   25112.95931376 -.00000014  00000+0  20737-3 0  9992",
    "line2": "2 07529 102.0047 116.2827 0008592 278.4555 136.9922 12.53194004306882"
  },
  {
    "name": "NOAA 5",
    "line1": "1 09057U 76077A   25112.89580498 -.00000011  00000+0  26850-3 0  9996",
    "line2": "2 09057 102.2554  92.3075 0010048  30.4359 357.4991 12.37816587202476"
  },
  {
    "name": "TIROS N",
    "line1": "1 11060U 78096A   25112.96727318  .00000326  00000+0  17538-3 0  9999",
    "line2": "2 11060  98.4922 147.2281 0010855  26.5832 333.5899 14.19168073619145"
  },
  {
    "name": "NOAA 6",
    "line1": "1 11416U 79057A   25113.08153205  .00000652  00000+0  24369-3 0  9996",
    "line2": "2 11416  98.6036 139.6819 0011002  66.9950 293.2394 14.35132499390907"
  },
  {
    "name": "NOAA 7",
    "line1": "1 12553U 81059A   25113.11088801  .00000110  00000+0  75902-4 0  9996",
    "line2": "2 12553  98.8470 178.0394 0011974  34.5872 325.6080 14.17695324265444"
  },
  {
    "name": "NOAA 8",
    "line1": "1 13923U 83022A   25112.95193901  .00000331  00000+0  14648-3 0  9993",
    "line2": "2 13923  98.7386 119.7098 0015745  50.6911 309.5664 14.29609082191027"
  },
  {
    "name": "NOAA 9",
    "line1": "1 15427U 84123A   25112.58943898  .00000281  00000+0  16332-3 0  9990",
    "line2": "2 15427  99.1244 123.8320 0015744 100.4107  51.7813 14.16904188 83854"
  },
  {
    "name": "NOAA 10",
    "line1": "1 16969U 86073A   25113.00523447  .00000325  00000+0  14604-3 0  9999",
    "line2": "2 16969  98.6734 102.6298 0012795 141.0658 250.9053 14.28984010  9658"
  },
  {
    "name": "NOAA 11",
    "line1": "1 19531U 88089A   25112.86277269  .00000150  00000+0  97751-4 0  9998",
    "line2": "2 19531  98.5669  68.5649 0012161  67.0495 293.1962 14.15733660888006"
  },
  {
    "name": "NOAA 12",
    "line1": "1 21263U 91032A   25112.96007463  .00000244  00000+0  11897-3 0  9993",
    "line2": "2 21263  98.5864 103.5927 0013744 171.3225 188.8196 14.26592419765049"
  },
  {
    "name": "NOAA 13",
    "line1": "1 22739U 93050A   25112.86300674  .00000252  00000+0  15620-3 0  9990",
    "line2": "2 22739  98.6526  65.3779 0008367 246.8236 113.2056 14.13509651633996"
  },
  {
    "name": "NOAA 14",
    "line1": "1 23455U 94089A   25112.91839675  .00000157  00000+0  10296-3 0  9991",
    "line2": "2 23455  98.4620  98.2042 0008862 205.1992 154.8751 14.14573732563784"
  },
  {
    "name": "NOAA 15",
    "line1": "1 25338U 98030A   25113.06061880  .00000355  00000+0  16364-3 0  9997",
    "line2": "2 25338  98.5395 139.3268 0011214 134.4186 225.7915 14.26948282401620"
  },
  {
    "name": "NOAA 16",
    "line1": "1 26536U 00055A   25112.87234633  .00000189  00000+0  12142-3 0  9999",
    "line2": "2 26536  98.4931 143.7361 0011561  70.8223 289.4201 14.13792808564339"
  },
  {
    "name": "NOAA 17",
    "line1": "1 27453U 02032A   25112.96579939  .00000342  00000+0  16216-3 0  9993",
    "line2": "2 27453  98.8086  70.1800 0012490 126.1256 234.1082 14.25989607187093"
  },
  {
    "name": "NOAA 18",
    "line1": "1 28654U 05018A   25113.05723064  .00000338  00000+0  20276-3 0  9991",
    "line2": "2 28654  98.8425 193.0668 0013088 263.1019  96.8664 14.13581684 27030"
  },
  {
    "name": "NOAA 19",
    "line1": "1 33591U 09005A   25112.91437112  .00000328  00000+0  19873-3 0  9997",
    "line2": "2 33591  99.0004 177.3446 0014638 136.0728 224.1610 14.13346390835114"
  },
  {
    "name": "SUOMI NPP",
    "line1": "1 37849U 11061A   25112.89355412  .00000190  00000+0  11093-3 0  9994",
    "line2": "2 37849  98.7549  52.6957 0002535  88.2847 271.8619 14.19522765698819"
  },
  {
    "name": "NOAA 20 (JPSS-1)",
    "line1": "1 43013U 17073A   25112.90922107  .00000171  00000+0  10194-3 0  9996",
    "line2": "2 43013  98.7388  52.1063 0002211  76.2991 283.8431 14.19528858384840"
  },
  {
    "name": "NOAA 21 (JPSS-2)",
    "line1": "1 54234U 22150A   25112.87494900  .00000196  00000+0  11364-3 0  9993",
    "line2": "2 54234  98.7243  52.4468 0001379   5.3471 354.7719 14.19581032126911"
  }
]